{"type":"FeatureCollection","features":[{"type":"Feature","properties":{"Region":"EU"},"geometry":{"coordinates":[[[50.88657390328791,67.83544681384487],[26.38131874765608,72.72928450137258],[-13.663027327303553,55.620312423271855],[-10.169557204102261,35.83464989417325],[11.061990599275333,37.564634857577545],[23.14114710879022,36.14549462850351],[28.62967974795683,40.16868981367679],[37.44105470070264,42.79051403646582],[52.14793338237837,38.26547363915225],[50.53946311784762,40.64420390419167],[45.446704461340715,49.76710445446275],[52.52726762816786,51.53307603685289],[63.99725530361883,55.89870645105324],[50.88657390328791,67.83544681384487]]],"type":"Polygon"},"id":0},{"type":"Feature","properties":{"Region":"SWA"},"geometry":{"coordinates":[[[72.11253158970689,54.496221902106186],[68.50783119699531,56.17445629700126],[61.342762869503815,54.72790554630541],[55.420078604420496,52.03971728572918],[45.609374314344365,49.83521548908075],[52.19095236380788,37.72007288210111],[44.61602033467806,40.56824938565755],[36.87628208665686,41.792889540395265],[26.810869154031195,39.97623573568163],[27.82478787713083,33.93553177714212],[33.295926648620906,29.02003526782977],[43.38424821287862,12.290529609501661],[56.94231730774908,16.132665909877204],[61.99665695959297,23.176000074080292],[68.44857527844962,21.660563909451383],[78.26231943168528,5.573421217721773],[83.20465721678227,5.084311277390299],[81.7631073323106,12.31374299082161],[89.39970033338767,20.058996234834495],[91.13555158084375,22.562765104311055],[97.46124062340937,27.85818966569323],[90.41809865178124,26.716660128036352],[79.39182649173108,30.754697101951436],[72.76899890064973,39.791387061038904],[79.05576907920698,42.71810357179578],[87.79715249191929,49.98203023410875],[72.11253158970689,54.496221902106186]]],"type":"Polygon"},"id":1},{"type":"Feature","properties":{"Region":"NP"},"geometry":{"coordinates":[[[52.030539889870454,68.20462701052386],[64.85482708164986,56.920787703537314],[89.23665664320015,50.16928685849035],[103.29100388419346,59.92688984236776],[136.467586937176,55.72902504087469],[153.75338710366987,57.54177697648416],[157.3169003018523,49.79329166878392],[169.32357925945064,59.64513556182973],[192.85710786179163,63.082309558427625],[218.90063357078134,64.91682542154234],[243.22723827327087,55.98564937235196],[299.81046575287166,48.8016946391956],[296.7825284474602,59.952469694529725],[279.46978506131006,64.12989259895127],[251.48191633220148,68.40174802639928],[221.30208728994836,69.16508004735624],[197.35492410411752,68.40007406554892],[172.19685081070537,69.00844364727831],[131.300755609016,71.18991353412918],[102.91931925331988,76.86981915573656],[69.3059982422547,69.83407460614396],[52.030539889870454,68.20462701052386]]],"type":"Polygon"},"id":2},{"type":"Feature","properties":{"Region":"NA"},"geometry":{"coordinates":[[[-167.24929285170094,56.47001715614766],[-144.14758928433977,58.374342632323334],[-127.51732682715954,49.29244168222726],[-121.93109862389082,33.33555401070299],[-117.42554185154347,32.003497590935964],[-96.14657191930013,24.96233294183314],[-90.63951138963864,28.904693430146494],[-84.15024702906145,28.593181628479442],[-80.20610374325997,23.545088106072015],[-80.52019061860912,30.90962080946018],[-72.31675638889755,37.56167613980503],[-68.51811348379391,41.974266980302815],[-58.80451880402018,46.481400987302806],[-64.6737326747996,48.959129785596616],[-116.99601832462525,55.20506464948642],[-141.09133685146793,64.53577110236654],[-167.28578116177937,63.420517683648],[-167.24929285170094,56.47001715614766]]],"type":"Polygon"},"id":3},{"type":"Feature","properties":{"Region":"LA"},"geometry":{"coordinates":[[[-117.09899040654085,31.323677403805775],[-115.30507465934895,26.178204097956325],[-99.2294174084688,14.501046573135511],[-81.21492369685942,5.4550117578083785],[-82.75752594375052,-3.9551226048273094],[-72.19099269482092,-19.949060631376966],[-77.24820330366646,-50.5774393411263],[-70.55595564036264,-58.4794508982783],[-31.495785258338373,-6.975274822212043],[-48.96686098092482,3.4846291219905083],[-59.29308333043346,9.833523816282252],[-72.22449370383791,13.378530679981651],[-76.39648042668357,9.481370749210129],[-81.76480480135001,10.19055234632927],[-82.2743793911508,14.961187487359282],[-87.3133087720502,16.331861106873873],[-85.82304238698055,20.171172058053813],[-79.41064492747138,17.515806411016996],[-60.94897080671842,18.33657721352985],[-78.6983715346168,23.630923390171134],[-96.22992281722361,24.12873118955821],[-106.46107624418678,28.080117388041614],[-117.09899040654085,31.323677403805775]]],"type":"Polygon"},"id":4},{"type":"Feature","properties":{"Region":"AF"},"geometry":{"coordinates":[[[-12.883427775024245,30.038180843212288],[-20.92000585145294,14.428497681872514],[-6.08565035068807,0.939363814558007],[8.12062787836598,3.1040990306513265],[11.75183650428545,-9.548094179187373],[10.87985665114627,-23.080707042761517],[18.421583072024532,-37.31236199771543],[35.947126901190956,-30.409564406943765],[47.33856572325408,-26.81589894619053],[52.87924458818301,-12.428223297050977],[42.08536109455028,-11.407084007311283],[41.60812979577426,-5.176240720446785],[52.66971834243407,8.67601331095446],[52.58658480592803,12.823076910565646],[45.301873083031296,11.71199319473942],[43.07908813180447,13.987994114380598],[30.480642078625294,33.02611128822316],[17.757492131796027,33.29208486687892],[8.28521250871276,38.658577177338515],[-10.137997616409223,35.417359593925895],[-12.883427775024245,30.038180843212288]]],"type":"Polygon"},"id":5},{"type":"Feature","properties":{"Region":"EA"},"geometry":{"coordinates":[[[92.32968884213528,51.39440938026789],[87.59419361183228,48.983557000202524],[79.31704759323395,42.18297163429338],[73.43113816087941,39.967515704530626],[74.34023114373889,37.183288494596084],[77.15086236352715,35.34136439596203],[78.75481354230192,32.143149855025925],[80.63485690865002,30.487985140727474],[85.44545526303239,28.139284227137992],[89.41483850844253,28.144051133329157],[92.8715348272915,26.811396652854484],[95.4633201965272,27.933929077206145],[97.82614849765048,28.10853785061228],[98.46768578591639,26.24591705119954],[97.26429537042924,23.97656185505916],[99.97456236053154,21.376755534676164],[102.9940780426167,22.893563108017077],[106.40273256214027,22.7338698419819],[107.80247869019456,21.314471283402128],[108.60503072246047,17.49717137330464],[121.26057191156804,22.17402877591428],[125.5341722899023,34.06149984271211],[130.02131451867967,31.027090729166062],[141.7948231259661,35.28424852563809],[146.12322866332,44.206607809796225],[144.94383367948643,45.97199494696795],[143.7645233944421,54.441750203308686],[125.99031166302547,57.403425744000884],[103.55347130271787,59.5030073481511],[92.32968884213528,51.39440938026789]]],"type":"Polygon"},"id":6},{"type":"Feature","properties":{"Region":"OC"},"geometry":{"coordinates":[[[130.94192825698212,-1.6303425020594489],[133.30377350100468,-4.869877277398203],[134.0383354592941,-10.092060572886325],[129.8551772218584,-11.114802032925923],[120.660139371409,-17.13833746840345],[113.05631489567111,-22.10884105498529],[112.93233516092312,-31.084533120113342],[115.99745358745338,-36.89918346366173],[127.94133803502632,-33.40583939482576],[134.35135656065444,-33.72052520653874],[138.86434961044876,-38.94511626054617],[147.82679143526718,-44.723424644007856],[155.62054772080478,-25.923380300948068],[168.57591775999595,-49.299679949672],[185.55381909131108,-38.04314523563713],[171.49151722171544,-33.617878982697384],[168.59506854264208,-40.66501978080044],[162.7980228872019,-35.43576278543443],[158.72567869922113,-26.34214729240631],[149.30671213880746,-20.10118866808342],[145.14190588237852,-12.786840422697097],[146.59822482512396,-11.020533416309092],[152.11251075263192,-10.312093703016657],[153.886541788238,-1.4233837278520838],[132.1257237969266,0.7781632977726787],[130.94192825698212,-1.6303425020594489]]],"type":"Polygon"},"id":7},{"type":"Feature","properties":{"Region":"SEA"},"geometry":{"coordinates":[[[95.97523219255669,27.57444164414524],[91.6514793275112,22.864322142938178],[92.52501961346513,18.52976202674364],[94.09243361999978,15.798668167355189],[97.01898964342155,16.183754626864612],[98.05799870470946,12.766954836305516],[97.73755365328219,8.065656294215856],[94.93899824008133,5.5780600892079235],[101.81052657212115,-5.193652834367157],[117.36393862728221,-10.36870290471552],[125.17289361264255,-11.382173018986023],[128.2455359159419,-8.53114713510304],[131.55190281403645,-3.815248065298775],[122.40207773943024,19.372534379973516],[108.16211850726108,17.850075654338582],[107.77423133575735,21.431415644934063],[105.38753435101552,23.167278971251335],[101.52967080193383,20.398696957797014],[97.34563322404074,23.782277264003127],[98.3189658419825,27.47926894637277],[95.97523219255669,27.57444164414524]]],"type":"Polygon"},"id":8},{"type":"Feature","properties":{"Region":"AC"},"geometry":{"coordinates":[[[-127.49016764874968,69.80221047583063],[-51.70300109643023,59.44809698221377],[-43.63043605558255,58.15708502498708],[-20.597278655648466,68.22576887144933],[-2.52498803432988,83.42191348417299],[-117.57516036484256,78.10294692079322],[-127.49016764874968,69.80221047583063]]],"type":"Polygon"},"id":9}]}